[
    {
        "Altitude(m)": 590382.8343212344,
        "Argument of Periapsis(deg)": -0.007534386927657468,
        "Eccentricity": 0.0,
        "Inclination(deg)": 97.0,
        "Latitude(deg)": -73.6244767302249,
        "Longitude(deg)": -76.20609666947918,
        "Mean Anomaly(deg)": 284.9874477563958,
        "RAAN(deg)": 0.0019823512061702565,
        "Satellite Name": "Starlink Shell 3 1628",
        "Satellite Number": 1628,
        "Semi-Major Axis(m)": 6938478.169268562,
        "Time(s)": 190
    },
    {
        "Altitude(m)": 590262.7251821485,
        "Argument of Periapsis(deg)": -0.007930933608060494,
        "Eccentricity": 0.0,
        "Inclination(deg)": 97.0,
        "Latitude(deg)": -73.06228404513044,
        "Longitude(deg)": -77.16340467234195,
        "Mean Anomaly(deg)": 285.6129239541009,
        "RAAN(deg)": 0.0020866854801792176,
        "Satellite Name": "Starlink Shell 3 1628",
        "Satellite Number": 1628,
        "Semi-Major Axis(m)": 6938478.169268562,
        "Time(s)": 200
    },
    {
        "Altitude(m)": 590138.1370067421,
        "Argument of Periapsis(deg)": -0.008327480288463517,
        "Eccentricity": 0.0,
        "Inclination(deg)": 97.0,
        "Latitude(deg)": -72.49622505892034,
        "Longitude(deg)": -78.06342806638096,
        "Mean Anomaly(deg)": 286.23840015180593,
        "RAAN(deg)": 0.0021910197541881783,
        "Satellite Name": "Starlink Shell 3 1628",
        "Satellite Number": 1628,
        "Semi-Major Axis(m)": 6938478.169268562,
        "Time(s)": 210
    },
    {
        "Altitude(m)": 590009.1201497215,
        "Argument of Periapsis(deg)": -0.008724026968866542,
        "Eccentricity": 0.0,
        "Inclination(deg)": 97.0,
        "Latitude(deg)": -71.92665686654057,
        "Longitude(deg)": -78.91121370194874,
        "Mean Anomaly(deg)": 286.863876349511,
        "RAAN(deg)": 0.002295354028197139,
        "Satellite Name": "Starlink Shell 3 1628",
        "Satellite Number": 1628,
        "Semi-Major Axis(m)": 6938478.169268562,
        "Time(s)": 220
    },
    {
        "Altitude(m)": 589875.7267475995,
        "Argument of Periapsis(deg)": -0.009120573649269567,
        "Eccentricity": 0.0,
        "Inclination(deg)": 97.0,
        "Latitude(deg)": -71.3538948558047,
        "Longitude(deg)": -79.71127233235632,
        "Mean Anomaly(deg)": 287.489352547216,
        "RAAN(deg)": 0.0023996883022061,
        "Satellite Name": "Starlink Shell 3 1628",
        "Satellite Number": 1628,
        "Semi-Major Axis(m)": 6938478.169268562,
        "Time(s)": 230
    },
    {
        "Altitude(m)": 589738.0106964736,
        "Argument of Periapsis(deg)": -0.009517120329672592,
        "Eccentricity": 0.0,
        "Inclination(deg)": 97.0,
        "Latitude(deg)": -70.7782183373378,
        "Longitude(deg)": -80.46764147852859,
        "Mean Anomaly(deg)": 288.11482874492106,
        "RAAN(deg)": 0.0025040225762150608,
        "Satellite Name": "Starlink Shell 3 1628",
        "Satellite Number": 1628,
        "Semi-Major Axis(m)": 6938478.169268562,
        "Time(s)": 240
    },
    {
        "Altitude(m)": 589596.0276290822,
        "Argument of Periapsis(deg)": -0.009913667010075618,
        "Eccentricity": 0.0,
        "Inclination(deg)": 97.0,
        "Latitude(deg)": -70.19987533334181,
        "Longitude(deg)": -81.18394213900125,
        "Mean Anomaly(deg)": 288.7403049426261,
        "RAAN(deg)": 0.002608356850224022,
        "Satellite Name": "Starlink Shell 3 1628",
        "Satellite Number": 1628,
        "Semi-Major Axis(m)": 6938478.169268562,
        "Time(s)": 250
    },
    {
        "Altitude(m)": 589449.8348910862,
        "Argument of Periapsis(deg)": -0.010310213690478642,
        "Eccentricity": 0.0,
        "Inclination(deg)": 97.0,
        "Latitude(deg)": -69.61908665904701,
        "Longitude(deg)": -81.86342713014155,
        "Mean Anomaly(deg)": 289.36578114033114,
        "RAAN(deg)": 0.0027126911242329826,
        "Satellite Name": "Starlink Shell 3 1628",
        "Satellite Number": 1628,
        "Semi-Major Axis(m)": 6938478.169268562,
        "Time(s)": 260
    },
    {
        "Altitude(m)": 589299.4915165674,
        "Argument of Periapsis(deg)": -0.010706760370881667,
        "Eccentricity": 0.0,
        "Inclination(deg)": 97.0,
        "Latitude(deg)": -69.03604940901204,
        "Longitude(deg)": -82.50902335399336,
        "Mean Anomaly(deg)": 289.9912573380362,
        "RAAN(deg)": 0.0028170253982419437,
        "Satellite Name": "Starlink Shell 3 1628",
        "Satellite Number": 1628,
        "Semi-Major Axis(m)": 6938478.169268562,
        "Time(s)": 270
    },
    {
        "Altitude(m)": 589145.0582028577,
        "Argument of Periapsis(deg)": -0.011103307051284692,
        "Eccentricity": 0.0,
        "Inclination(deg)": 97.0,
        "Latitude(deg)": -68.45093994206235,
        "Longitude(deg)": -83.12337023785159,
        "Mean Anomaly(deg)": 290.6167335357412,
        "RAAN(deg)": 0.0029213596722509044,
        "Satellite Name": "Starlink Shell 3 1628",
        "Satellite Number": 1628,
        "Semi-Major Axis(m)": 6938478.169268562,
        "Time(s)": 280
    },
    {
        "Altitude(m)": 588986.5972845404,
        "Argument of Periapsis(deg)": -0.011499853731687715,
        "Eccentricity": 0.0,
        "Inclination(deg)": 97.0,
        "Latitude(deg)": -67.86391644322642,
        "Longitude(deg)": -83.70885198500874,
        "Mean Anomaly(deg)": 291.24220973344626,
        "RAAN(deg)": 0.003025693946259865,
        "Satellite Name": "Starlink Shell 3 1628",
        "Satellite Number": 1628,
        "Semi-Major Axis(m)": 6938478.169268562,
        "Time(s)": 290
    },
    {
        "Altitude(m)": 588824.1727068175,
        "Argument of Periapsis(deg)": -0.011896400412090741,
        "Eccentricity": 0.0,
        "Inclination(deg)": 97.0,
        "Latitude(deg)": -67.2751211281279,
        "Longitude(deg)": -84.26762574486689,
        "Mean Anomaly(deg)": 291.8676859311513,
        "RAAN(deg)": 0.0031300282202688257,
        "Satellite Name": "Starlink Shell 3 1628",
        "Satellite Number": 1628,
        "Semi-Major Axis(m)": 6938478.169268562,
        "Time(s)": 300
    },
    {
        "Altitude(m)": 588657.8499980908,
        "Argument of Periapsis(deg)": -0.012292947092493765,
        "Eccentricity": 0.0,
        "Inclination(deg)": 97.0,
        "Latitude(deg)": -66.68468214455264,
        "Longitude(deg)": -84.80164774202359,
        "Mean Anomaly(deg)": 292.4931621288564,
        "RAAN(deg)": 0.0032343624942777873,
        "Satellite Name": "Starlink Shell 3 1628",
        "Satellite Number": 1628,
        "Semi-Major Axis(m)": 6938478.169268562,
        "Time(s)": 310
    },
    {
        "Altitude(m)": 588487.6962418793,
        "Argument of Periapsis(deg)": -0.012689493772896788,
        "Eccentricity": 0.0,
        "Inclination(deg)": 97.0,
        "Latitude(deg)": -66.0927152169725,
        "Longitude(deg)": -85.31269480092386,
        "Mean Anomaly(deg)": 293.11863832656144,
        "RAAN(deg)": 0.003338696768286748,
        "Satellite Name": "Starlink Shell 3 1628",
        "Satellite Number": 1628,
        "Semi-Major Axis(m)": 6938478.169268562,
        "Time(s)": 320
    },
    {
        "Altitude(m)": 588313.7800480252,
        "Argument of Periapsis(deg)": -0.013086040453299813,
        "Eccentricity": 0.0,
        "Inclination(deg)": 97.0,
        "Latitude(deg)": -65.49932507238877,
        "Longitude(deg)": -85.80238318252289,
        "Mean Anomaly(deg)": 293.7441145242665,
        "RAAN(deg)": 0.0034430310422957086,
        "Satellite Name": "Starlink Shell 3 1628",
        "Satellite Number": 1628,
        "Semi-Major Axis(m)": 6938478.169268562,
        "Time(s)": 330
    },
    {
        "Altitude(m)": 588136.1715232171,
        "Argument of Periapsis(deg)": -0.01348258713370284,
        "Eccentricity": 0.0,
        "Inclination(deg)": 97.0,
        "Latitude(deg)": -64.90460667969556,
        "Longitude(deg)": -86.27218659672329,
        "Mean Anomaly(deg)": 294.36959072197146,
        "RAAN(deg)": 0.00354736531630467,
        "Satellite Name": "Starlink Shell 3 1628",
        "Satellite Number": 1628,
        "Semi-Major Axis(m)": 6938478.169268562,
        "Time(s)": 340
    },
    {
        "Altitude(m)": 587954.9422408415,
        "Argument of Periapsis(deg)": -0.013879133814105863,
        "Eccentricity": 0.0,
        "Inclination(deg)": 97.0,
        "Latitude(deg)": -64.30864632963521,
        "Longitude(deg)": -86.72345066911251,
        "Mean Anomaly(deg)": 294.9950669196765,
        "RAAN(deg)": 0.00365169959031363,
        "Satellite Name": "Starlink Shell 3 1628",
        "Satellite Number": 1628,
        "Semi-Major Axis(m)": 6938478.169268562,
        "Time(s)": 350
    },
    {
        "Altitude(m)": 587770.165210169,
        "Argument of Periapsis(deg)": -0.01427568049450889,
        "Eccentricity": 0.0,
        "Inclination(deg)": 97.0,
        "Latitude(deg)": -63.71152257816362,
        "Longitude(deg)": -87.15740563830937,
        "Mean Anomaly(deg)": 295.62054311738154,
        "RAAN(deg)": 0.0037560338643225916,
        "Satellite Name": "Starlink Shell 3 1628",
        "Satellite Number": 1628,
        "Semi-Major Axis(m)": 6938478.169268562,
        "Time(s)": 360
    },
    {
        "Altitude(m)": 587581.9148448912,
        "Argument of Periapsis(deg)": -0.014672227174911913,
        "Eccentricity": 0.0,
        "Inclination(deg)": 97.0,
        "Latitude(deg)": -63.113307072487096,
        "Longitude(deg)": -87.57517902464842,
        "Mean Anomaly(deg)": 296.2460193150866,
        "RAAN(deg)": 0.0038603681383315522,
        "Satellite Name": "Starlink Shell 3 1628",
        "Satellite Number": 1628,
        "Semi-Major Axis(m)": 6938478.169268562,
        "Time(s)": 370
    }
]